NORAD_CAT_ID,OBJECT_NAME,OBJECT_TYPE,EPOCH,MEAN_MOTION,ECCENTRICITY,INCLINATION,RA_OF_ASC_NODE,ARG_OF_PERICENTER,MEAN_ANOMALY,BSTAR,MEAN_MOTION_DOT,MEAN_MOTION_DDOT,TLE_LINE0,TLE_LINE1,TLE_LINE2,SEMIMAJOR_AXIS,PERIOD,APOGEE,PERIGEE,DECAYED
53800.0,STARLINK-4720,PAYLOAD,2024-02-23 14:21:12,15.08842787,0.000193,53.2211,8.9101,79.7645,280.3565,8.4962e-05,1.064e-05,0.0,0 STARLINK-4720,1 53800U 22111AD  24054.59805745  .00001064  00000-0  84962-4 0  9995,2 53800  53.2211   8.9101 0001930  79.7645 280.3565 15.08842787 81336,6917.872,95.437,541.072,538.402,0.0
53800.0,STARLINK-4720,PAYLOAD,2024-02-23 20:42:45,15.0883633,0.0001949,53.218,7.7228,81.8873,278.234,7.9911e-05,9.84e-06,0.0,0 STARLINK-4720,1 53800U 22111AD  24054.86302220  .00000984  00000-0  79911-4 0  9993,2 53800  53.2180   7.7228 0001949  81.8873 278.2340 15.08836330 80563,6917.892,95.438,541.105,538.408,0.0
53800.0,STARLINK-4720,PAYLOAD,2024-02-24 14:11:59,15.08840444,0.0001829,53.2174,4.4495,91.0535,269.0667,9.167e-05,1.171e-05,0.0,0 STARLINK-4720,1 53800U 22111AD  24055.59166151  .00001171  00000-0  91670-4 0  9990,2 53800  53.2174   4.4495 0001829  91.0535 269.0667 15.08840444 81484,6917.879,95.438,541.009,538.479,0.0
53800.0,STARLINK-4720,PAYLOAD,2024-02-25 02:55:04,15.08852614,0.0001906,53.2176,2.0714,88.4335,271.6875,0.00014356,1.998e-05,0.0,0 STARLINK-4720,1 53800U 22111AD  24056.12157518  .00001998  00000-0  14356-3 0  9999,2 53800  53.2176   2.0714 0001906  88.4335 271.6875 15.08852614 80759,6917.842,95.437,541.025,538.388,0.0
53800.0,STARLINK-4720,PAYLOAD,2024-02-25 06:05:50,15.08854746,0.0001932,53.2172,1.4762,87.8392,272.2822,0.00019263,2.78e-05,0.0,0 STARLINK-4720,1 53800U 22111AD  24056.25405378  .00002780  00000-0  19263-3 0  9995,2 53800  53.2172   1.4762 0001932  87.8392 272.2822 15.08854746 81585,6917.835,95.437,541.037,538.364,0.0
53800.0,STARLINK-4720,PAYLOAD,2024-02-26 05:56:36,15.08874076,0.0001547,53.2169,357.0136,82.9039,277.2129,0.00059785,9.248e-05,0.0,0 STARLINK-4720,1 53800U 22111AD  24057.24763951  .00009248  00000-0  59785-3 0  9998,2 53800  53.2169 357.0136 0001547  82.9039 277.2129 15.08874076 80922,6917.776,95.435,540.711,538.571,0.0
53800.0,STARLINK-4720,PAYLOAD,2024-02-27 01:01:14,15.08830644,0.0001694,53.2187,353.4462,97.2475,262.871,-0.00029189,-4.929e-05,0.0,0 STARLINK-4720,1 53800U 22111AD  24058.04253379 -.00004929  00000-0 -29189-3 0  9993,2 53800  53.2187 353.4462 0001694  97.2475 262.8710 15.08830644 81043,6917.909,95.438,540.946,538.602,0.0
53800.0,STARLINK-4720,PAYLOAD,2024-02-27 12:08:57,15.08834646,0.0001609,53.2188,351.3645,88.0825,272.0351,2.5998e-05,1.26e-06,0.0,0 STARLINK-4720,1 53800U 22111AD  24058.50621645  .00000126  00000-0  25998-4 0  9997,2 53800  53.2188 351.3645 0001609  88.0825 272.0351 15.08834646 81924,6917.897,95.438,540.875,538.649,0.0
53800.0,STARLINK-4720,PAYLOAD,2024-02-27 20:05:53,15.0882878,0.0001641,53.2192,349.8811,99.3229,260.7949,0.00025738,3.809e-05,0.0,0 STARLINK-4720,1 53800U 22111AD  24058.83742192  .00003809  00000-0  25738-3 0  9996,2 53800  53.2192 349.8811 0001641  99.3229 260.7949 15.08828780 81979,6917.915,95.438,540.915,538.644,0.0
53800.0,STARLINK-4720,PAYLOAD,2024-02-28 04:02:49,15.08839807,0.0001638,53.2191,348.396,103.4315,256.6859,0.00070085,0.00010884,0.0,0 STARLINK-4720,1 53800U 22111AD  24059.16862319  .00010884  00000-0  70085-3 0  9993,2 53800  53.2191 348.3960 0001638 103.4315 256.6859 15.08839807 81219,6917.881,95.438,540.879,538.613,0.0
53800.0,STARLINK-4720,PAYLOAD,2024-02-28 11:59:44,15.08838876,0.0001558,53.2188,346.9091,98.6277,261.4892,0.00043532,6.647e-05,0.0,0 STARLINK-4720,1 53800U 22111AD  24059.49982454  .00006647  00000-0  43532-3 0  9991,2 53800  53.2188 346.9091 0001558  98.6277 261.4892 15.08838876 82078,6917.884,95.438,540.827,538.671,0.0
53800.0,STARLINK-4720,PAYLOAD,2024-02-29 03:53:36,15.08835845,0.0001585,53.2189,343.9356,99.0522,261.0649,0.00021656,3.16e-05,0.0,0 STARLINK-4720,1 53800U 22111AD  24060.16222801  .00003160  00000-0  21656-3 0  9990,2 53800  53.2189 343.9356 0001585  99.0522 261.0649 15.08835845 81368,6917.893,95.438,540.855,538.662,0.0
53800.0,STARLINK-4720,PAYLOAD,2024-02-29 11:50:32,15.08837563,0.0001759,53.2192,342.4473,86.856,273.2633,0.00020235,2.934e-05,0.0,0 STARLINK-4720,1 53800U 22111AD  24060.49342944  .00002934  00000-0  20235-3 0  9997,2 53800  53.2192 342.4473 0001759  86.8560 273.2633 15.08837563 82228,6917.888,95.438,540.97,538.536,0.0
53800.0,STARLINK-4720,PAYLOAD,2024-02-29 18:12:04,15.08836554,0.0001676,53.2188,341.2601,88.8548,271.2636,0.0001377,1.904e-05,0.0,0 STARLINK-4720,1 53800U 22111AD  24060.75839056  .00001904  00000-0  13770-3 0  9993,2 53800  53.2188 341.2601 0001676  88.8548 271.2636 15.08836554 82263,6917.891,95.438,540.915,538.596,0.0
53800.0,STARLINK-4720,PAYLOAD,2024-03-01 11:41:19,15.08844765,0.000146,53.216,337.9886,89.136,270.98,0.00025494,3.772e-05,0.0,0 STARLINK-4720,1 53800U 22111AD  24061.48702767  .00003772  00000-0  25494-3 0  9993,2 53800  53.2160 337.9886 0001460  89.1360 270.9800 15.08844765 82371,6917.866,95.437,540.741,538.721,0.0
53800.0,STARLINK-4720,PAYLOAD,2024-03-02 01:59:46,15.08856194,0.0001479,53.2165,335.3125,87.3652,272.751,0.00037208,5.641e-05,0.0,0 STARLINK-4720,1 53800U 22111AD  24062.08318141  .00005641  00000-0  37208-3 0  9992,2 53800  53.2165 335.3125 0001479  87.3652 272.7510 15.08856194 82465,6917.831,95.437,540.719,538.673,0.0
53800.0,STARLINK-4720,PAYLOAD,2024-03-02 22:39:48,15.08838994,0.0001319,53.2182,331.4433,98.5251,261.5891,0.00011846,1.598e-05,0.0,0 STARLINK-4720,1 53800U 22111AD  24062.94430732  .00001598  00000-0  11846-3 0  9995,2 53800  53.2182 331.4433 0001319  98.5251 261.5891 15.08838994 82595,6917.883,95.438,540.661,538.836,0.0
53800.0,STARLINK-4720,PAYLOAD,2024-03-03 00:15:11,15.0884079,0.000146,53.2171,331.148,91.6,268.5159,4.4519e-05,4.21e-06,0.0,0 STARLINK-4720,1 53800U 22111AD  24063.01054737  .00000421  00000-0  44519-4 0  9999,2 53800  53.2171 331.1480 0001460  91.6000 268.5159 15.08840790 81797,6917.878,95.438,540.753,538.733,0.0
53800.0,STARLINK-4720,PAYLOAD,2024-03-03 17:44:25,15.08844569,0.0001619,53.2189,327.8735,92.6509,267.4668,0.00015386,2.162e-05,0.0,0 STARLINK-4720,1 53800U 22111AD  24063.73918706  .00002162  00000-0  15386-3 0  9996,2 53800  53.2189 327.8735 0001619  92.6509 267.4668 15.08844569 82716,6917.866,95.437,540.851,538.611,0.0
53800.0,STARLINK-4720,PAYLOAD,2024-03-04 00:05:57,15.08861446,0.0001567,53.2182,326.6843,84.9447,275.1724,0.00064573,0.0001001,0.0,0 STARLINK-4720,1 53800U 22111AD  24064.00414269  .00010010  00000-0  64573-3 0  9995,2 53800  53.2182 326.6843 0001567  84.9447 275.1724 15.08861446 81949,6917.815,95.436,540.764,538.596,0.0
53800.0,STARLINK-4720,PAYLOAD,2024-03-04 20:45:58,15.08846708,0.0001425,53.2186,322.8181,109.6823,250.4323,0.00021685,3.166e-05,0.0,0 STARLINK-4720,1 53800U 22111AD  24064.86526453  .00003166  00000-0  21685-3 0  9999,2 53800  53.2186 322.8181 0001425 109.6823 250.4323 15.08846708 82072,6917.86,95.437,540.711,538.739,0.0
53800.0,STARLINK-4720,PAYLOAD,2024-03-04 22:21:21,15.08848704,0.0001549,53.218,322.5192,111.4172,248.6986,0.00028301,4.22e-05,0.0,0 STARLINK-4720,1 53800U 22111AD  24064.93150396  .00004220  00000-0  28301-3 0  9990,2 53800  53.2180 322.5192 0001549 111.4172 248.6986 15.08848704 82892,6917.854,95.437,540.79,538.647,0.0
53800.0,STARLINK-4720,PAYLOAD,2024-03-04 23:56:45,15.08848819,0.0001308,53.2174,322.225,99.0983,261.0157,0.00033331,5.022e-05,0.0,0 STARLINK-4720,1 53800U 22111AD  24064.99774424  .00005022  00000-0  33331-3 0  9990,2 53800  53.2174 322.2250 0001308  99.0983 261.0157 15.08848819 82909,6917.853,95.437,540.623,538.814,0.0
53800.0,STARLINK-4720,PAYLOAD,2024-03-05 20:36:46,15.08831748,0.0001408,53.218,318.3605,99.5702,260.5449,1.2403e-05,-9.1e-07,0.0,0 STARLINK-4720,1 53800U 22111AD  24065.85886853 -.00000091  00000-0  12403-4 0  9996,2 53800  53.2180 318.3605 0001408  99.5702 260.5449 15.08831748 82227,6917.906,95.438,540.745,538.797,0.0
53800.0,STARLINK-4720,PAYLOAD,2024-03-06 02:58:18,15.08835244,0.0001454,53.2183,317.1708,104.3428,255.7726,0.00062225,9.628e-05,0.0,0 STARLINK-4720,1 53800U 22111AD  24066.12383070  .00009628  00000-0  62225-3 0  9990,2 53800  53.2183 317.1708 0001454 104.3428 255.7726 15.08835244 83075,6917.895,95.438,540.766,538.754,0.0
53800.0,STARLINK-4720,PAYLOAD,2024-03-07 02:49:05,15.08852909,0.0001189,53.2169,312.7101,104.5125,255.5999,0.00058377,9.018e-05,0.0,0 STARLINK-4720,1 53800U 22111AD  24067.11742737  .00009018  00000-0  58377-3 0  9995,2 53800  53.2169 312.7101 0001189 104.5125 255.5999 15.08852909 82412,6917.841,95.437,540.528,538.883,0.0
53800.0,STARLINK-4720,PAYLOAD,2024-03-07 09:10:37,15.08867843,0.0001097,53.2175,311.5209,84.8823,275.2295,0.00096401,0.00015099,0.0,0 STARLINK-4720,1 53800U 22111AD  24067.38238270  .00015099  00000-0  96401-3 0  9992,2 53800  53.2175 311.5209 0001097  84.8823 275.2295 15.08867843 83263,6917.795,95.436,540.419,538.901,0.0
53800.0,STARLINK-4720,PAYLOAD,2024-03-07 23:29:06,15.08831612,0.0001297,53.2168,308.845,95.0574,265.0566,-0.00012024,-2.201e-05,0.0,0 STARLINK-4720,1 53800U 22111AD  24067.97855146 -.00002201  00000-0 -12024-3 0  9996,2 53800  53.2168 308.8450 0001297  95.0574 265.0566 15.08831612 82544,6917.906,95.438,540.668,538.874,0.0
53800.0,STARLINK-4720,PAYLOAD,2024-03-08 15:22:58,15.0884066,0.0001243,53.2164,305.8718,92.257,267.8565,0.00084079,0.00013119,0.0,0 STARLINK-4720,1 53800U 22111AD  24068.64095529  .00013119  00000-0  84079-3 0  9999,2 53800  53.2164 305.8718 0001243  92.2570 267.8565 15.08840660 82643,6917.878,95.438,540.603,538.883,0.0
53800.0,STARLINK-4720,PAYLOAD,2024-03-09 00:55:17,15.08850958,0.000121,53.2162,304.0876,93.1001,267.0129,0.00083765,0.00013072,0.0,0 STARLINK-4720,1 53800U 22111AD  24069.03839348  .00013072  00000-0  83765-3 0  9997,2 53800  53.2162 304.0876 0001210  93.1001 267.0129 15.08850958 83516,6917.847,95.437,540.549,538.875,0.0
